[
  {
    "id": "1",
    "iso2": "AF",
    "short_name": "Afghanistan",
    "long_name": "Islamic Republic of Afghanistan",
    "iso3": "AFG",
    "numcode": "004",
    "un_member": "yes",
    "calling_code": "93",
    "cctld": ".af",
    "spanish_name": "Afganist&aacute;n"
  },
  {
    "id": "2",
    "iso2": "AX",
    "short_name": "Aland Islands",
    "long_name": "&Aring;land Islands",
    "iso3": "ALA",
    "numcode": "248",
    "un_member": "no",
    "calling_code": "358",
    "cctld": ".ax",
    "spanish_name": "Islas &Acirc;land"
  },
  {
    "id": "3",
    "iso2": "AL",
    "short_name": "Albania",
    "long_name": "Republic of Albania",
    "iso3": "ALB",
    "numcode": "008",
    "un_member": "yes",
    "calling_code": "355",
    "cctld": ".al",
    "spanish_name": "Albania"
  },
  {
    "id": "4",
    "iso2": "DZ",
    "short_name": "Algeria",
    "long_name": "People's Democratic Republic of Algeria",
    "iso3": "DZA",
    "numcode": "012",
    "un_member": "yes",
    "calling_code": "213",
    "cctld": ".dz",
    "spanish_name": "Argelia"
  },
  {
    "id": "5",
    "iso2": "AS",
    "short_name": "American Samoa",
    "long_name": "American Samoa",
    "iso3": "ASM",
    "numcode": "016",
    "un_member": "no",
    "calling_code": "1+684",
    "cctld": ".as",
    "spanish_name": "Samoa Americana"
  },
  {
    "id": "6",
    "iso2": "AD",
    "short_name": "Andorra",
    "long_name": "Principality of Andorra",
    "iso3": "AND",
    "numcode": "020",
    "un_member": "yes",
    "calling_code": "376",
    "cctld": ".ad",
    "spanish_name": "Andorra"
  },
  {
    "id": "7",
    "iso2": "AO",
    "short_name": "Angola",
    "long_name": "Republic of Angola",
    "iso3": "AGO",
    "numcode": "024",
    "un_member": "yes",
    "calling_code": "244",
    "cctld": ".ao",
    "spanish_name": "Angola"
  },
  {
    "id": "8",
    "iso2": "AI",
    "short_name": "Anguilla",
    "long_name": "Anguilla",
    "iso3": "AIA",
    "numcode": "660",
    "un_member": "no",
    "calling_code": "1+264",
    "cctld": ".ai",
    "spanish_name": "Anguilla"
  },
  {
    "id": "9",
    "iso2": "AQ",
    "short_name": "Antarctica",
    "long_name": "Antarctica",
    "iso3": "ATA",
    "numcode": "010",
    "un_member": "no",
    "calling_code": "672",
    "cctld": ".aq",
    "spanish_name": "Ant&aacute;rtida"
  },
  {
    "id": "10",
    "iso2": "AG",
    "short_name": "Antigua and Barbuda",
    "long_name": "Antigua and Barbuda",
    "iso3": "ATG",
    "numcode": "028",
    "un_member": "yes",
    "calling_code": "1+268",
    "cctld": ".ag",
    "spanish_name": "Antigua y Barbuda"
  },
  {
    "id": "11",
    "iso2": "AR",
    "short_name": "Argentina",
    "long_name": "Argentine Republic",
    "iso3": "ARG",
    "numcode": "032",
    "un_member": "yes",
    "calling_code": "54",
    "cctld": ".ar",
    "spanish_name": "Argentina"
  },
  {
    "id": "12",
    "iso2": "AM",
    "short_name": "Armenia",
    "long_name": "Republic of Armenia",
    "iso3": "ARM",
    "numcode": "051",
    "un_member": "yes",
    "calling_code": "374",
    "cctld": ".am",
    "spanish_name": "Armenia"
  },
  {
    "id": "13",
    "iso2": "AW",
    "short_name": "Aruba",
    "long_name": "Aruba",
    "iso3": "ABW",
    "numcode": "533",
    "un_member": "no",
    "calling_code": "297",
    "cctld": ".aw",
    "spanish_name": "Aruba"
  },
  {
    "id": "14",
    "iso2": "AU",
    "short_name": "Australia",
    "long_name": "Commonwealth of Australia",
    "iso3": "AUS",
    "numcode": "036",
    "un_member": "yes",
    "calling_code": "61",
    "cctld": ".au",
    "spanish_name": "Australia"
  },
  {
    "id": "15",
    "iso2": "AT",
    "short_name": "Austria",
    "long_name": "Republic of Austria",
    "iso3": "AUT",
    "numcode": "040",
    "un_member": "yes",
    "calling_code": "43",
    "cctld": ".at",
    "spanish_name": "Austria"
  },
  {
    "id": "16",
    "iso2": "AZ",
    "short_name": "Azerbaijan",
    "long_name": "Republic of Azerbaijan",
    "iso3": "AZE",
    "numcode": "031",
    "un_member": "yes",
    "calling_code": "994",
    "cctld": ".az",
    "spanish_name": "Azerbaiy&aacute;n"
  },
  {
    "id": "17",
    "iso2": "BS",
    "short_name": "Bahamas",
    "long_name": "Commonwealth of The Bahamas",
    "iso3": "BHS",
    "numcode": "044",
    "un_member": "yes",
    "calling_code": "1+242",
    "cctld": ".bs",
    "spanish_name": "Bahamas"
  },
  {
    "id": "18",
    "iso2": "BH",
    "short_name": "Bahrain",
    "long_name": "Kingdom of Bahrain",
    "iso3": "BHR",
    "numcode": "048",
    "un_member": "yes",
    "calling_code": "973",
    "cctld": ".bh",
    "spanish_name": "Bahrein"
  },
  {
    "id": "19",
    "iso2": "BD",
    "short_name": "Bangladesh",
    "long_name": "People's Republic of Bangladesh",
    "iso3": "BGD",
    "numcode": "050",
    "un_member": "yes",
    "calling_code": "880",
    "cctld": ".bd",
    "spanish_name": "Bangladesh"
  },
  {
    "id": "20",
    "iso2": "BB",
    "short_name": "Barbados",
    "long_name": "Barbados",
    "iso3": "BRB",
    "numcode": "052",
    "un_member": "yes",
    "calling_code": "1+246",
    "cctld": ".bb",
    "spanish_name": "Barbados"
  },
  {
    "id": "21",
    "iso2": "BY",
    "short_name": "Belarus",
    "long_name": "Republic of Belarus",
    "iso3": "BLR",
    "numcode": "112",
    "un_member": "yes",
    "calling_code": "375",
    "cctld": ".by",
    "spanish_name": "Bielorrusia"
  },
  {
    "id": "22",
    "iso2": "BE",
    "short_name": "Belgium",
    "long_name": "Kingdom of Belgium",
    "iso3": "BEL",
    "numcode": "056",
    "un_member": "yes",
    "calling_code": "32",
    "cctld": ".be",
    "spanish_name": "B&eacute;lgica"
  },
  {
    "id": "23",
    "iso2": "BZ",
    "short_name": "Belize",
    "long_name": "Belize",
    "iso3": "BLZ",
    "numcode": "084",
    "un_member": "yes",
    "calling_code": "501",
    "cctld": ".bz",
    "spanish_name": "Belice"
  },
  {
    "id": "24",
    "iso2": "BJ",
    "short_name": "Benin",
    "long_name": "Republic of Benin",
    "iso3": "BEN",
    "numcode": "204",
    "un_member": "yes",
    "calling_code": "229",
    "cctld": ".bj",
    "spanish_name": "Ben&iacute;n"
  },
  {
    "id": "25",
    "iso2": "BM",
    "short_name": "Bermuda",
    "long_name": "Bermuda Islands",
    "iso3": "BMU",
    "numcode": "060",
    "un_member": "no",
    "calling_code": "1+441",
    "cctld": ".bm",
    "spanish_name": "Bermudas"
  },
  {
    "id": "26",
    "iso2": "BT",
    "short_name": "Bhutan",
    "long_name": "Kingdom of Bhutan",
    "iso3": "BTN",
    "numcode": "064",
    "un_member": "yes",
    "calling_code": "975",
    "cctld": ".bt",
    "spanish_name": "But&aacute;n"
  },
  {
    "id": "27",
    "iso2": "BO",
    "short_name": "Bolivia",
    "long_name": "Plurinational State of Bolivia",
    "iso3": "BOL",
    "numcode": "068",
    "un_member": "yes",
    "calling_code": "591",
    "cctld": ".bo",
    "spanish_name": "Bolivia"
  },
  {
    "id": "28",
    "iso2": "BQ",
    "short_name": "Bonaire, Sint Eustatius and Saba",
    "long_name": "Bonaire, Sint Eustatius and Saba",
    "iso3": "BES",
    "numcode": "535",
    "un_member": "no",
    "calling_code": "599",
    "cctld": ".bq",
    "spanish_name": "Caribe Neerland&eacute;s"
  },
  {
    "id": "29",
    "iso2": "BA",
    "short_name": "Bosnia and Herzegovina",
    "long_name": "Bosnia and Herzegovina",
    "iso3": "BIH",
    "numcode": "070",
    "un_member": "yes",
    "calling_code": "387",
    "cctld": ".ba",
    "spanish_name": "Bosnia-Herzegovina"
  },
  {
    "id": "30",
    "iso2": "BW",
    "short_name": "Botswana",
    "long_name": "Republic of Botswana",
    "iso3": "BWA",
    "numcode": "072",
    "un_member": "yes",
    "calling_code": "267",
    "cctld": ".bw",
    "spanish_name": "Botswana"
  },
  {
    "id": "31",
    "iso2": "BV",
    "short_name": "Bouvet Island",
    "long_name": "Bouvet Island",
    "iso3": "BVT",
    "numcode": "074",
    "un_member": "no",
    "calling_code": "NONE",
    "cctld": ".bv",
    "spanish_name": "Isla Bouvet"
  },
  {
    "id": "32",
    "iso2": "BR",
    "short_name": "Brazil",
    "long_name": "Federative Republic of Brazil",
    "iso3": "BRA",
    "numcode": "076",
    "un_member": "yes",
    "calling_code": "55",
    "cctld": ".br",
    "spanish_name": "Brasil"
  },
  {
    "id": "33",
    "iso2": "IO",
    "short_name": "British Indian Ocean Territory",
    "long_name": "British Indian Ocean Territory",
    "iso3": "IOT",
    "numcode": "086",
    "un_member": "no",
    "calling_code": "246",
    "cctld": ".io",
    "spanish_name": "Territorio Brit&aacute;nico del Oc&eacute;ano Indico"
  },
  {
    "id": "34",
    "iso2": "BN",
    "short_name": "Brunei",
    "long_name": "Brunei Darussalam",
    "iso3": "BRN",
    "numcode": "096",
    "un_member": "yes",
    "calling_code": "673",
    "cctld": ".bn",
    "spanish_name": "Brunei Darussalam"
  },
  {
    "id": "35",
    "iso2": "BG",
    "short_name": "Bulgaria",
    "long_name": "Republic of Bulgaria",
    "iso3": "BGR",
    "numcode": "100",
    "un_member": "yes",
    "calling_code": "359",
    "cctld": ".bg",
    "spanish_name": "Bulgaria"
  },
  {
    "id": "36",
    "iso2": "BF",
    "short_name": "Burkina Faso",
    "long_name": "Burkina Faso",
    "iso3": "BFA",
    "numcode": "854",
    "un_member": "yes",
    "calling_code": "226",
    "cctld": ".bf",
    "spanish_name": "Burkina Faso"
  },
  {
    "id": "37",
    "iso2": "BI",
    "short_name": "Burundi",
    "long_name": "Republic of Burundi",
    "iso3": "BDI",
    "numcode": "108",
    "un_member": "yes",
    "calling_code": "257",
    "cctld": ".bi",
    "spanish_name": "Burundi"
  },
  {
    "id": "38",
    "iso2": "KH",
    "short_name": "Cambodia",
    "long_name": "Kingdom of Cambodia",
    "iso3": "KHM",
    "numcode": "116",
    "un_member": "yes",
    "calling_code": "855",
    "cctld": ".kh",
    "spanish_name": "Camboya"
  },
  {
    "id": "39",
    "iso2": "CM",
    "short_name": "Cameroon",
    "long_name": "Republic of Cameroon",
    "iso3": "CMR",
    "numcode": "120",
    "un_member": "yes",
    "calling_code": "237",
    "cctld": ".cm",
    "spanish_name": "Camer&uacute;n"
  },
  {
    "id": "40",
    "iso2": "CA",
    "short_name": "Canada",
    "long_name": "Canada",
    "iso3": "CAN",
    "numcode": "124",
    "un_member": "yes",
    "calling_code": "1",
    "cctld": ".ca",
    "spanish_name": "Canad&aacute;"
  },
  {
    "id": "41",
    "iso2": "CV",
    "short_name": "Cape Verde",
    "long_name": "Republic of Cape Verde",
    "iso3": "CPV",
    "numcode": "132",
    "un_member": "yes",
    "calling_code": "238",
    "cctld": ".cv",
    "spanish_name": "Cabo Verde"
  },
  {
    "id": "42",
    "iso2": "KY",
    "short_name": "Cayman Islands",
    "long_name": "The Cayman Islands",
    "iso3": "CYM",
    "numcode": "136",
    "un_member": "no",
    "calling_code": "1+345",
    "cctld": ".ky",
    "spanish_name": "Islas Caim&aacute;n"
  },
  {
    "id": "43",
    "iso2": "CF",
    "short_name": "Central African Republic",
    "long_name": "Central African Republic",
    "iso3": "CAF",
    "numcode": "140",
    "un_member": "yes",
    "calling_code": "236",
    "cctld": ".cf",
    "spanish_name": "Rep&uacute;blica Centroafricana"
  },
  {
    "id": "44",
    "iso2": "TD",
    "short_name": "Chad",
    "long_name": "Republic of Chad",
    "iso3": "TCD",
    "numcode": "148",
    "un_member": "yes",
    "calling_code": "235",
    "cctld": ".td",
    "spanish_name": "Chad"
  },
  {
    "id": "45",
    "iso2": "CL",
    "short_name": "Chile",
    "long_name": "Republic of Chile",
    "iso3": "CHL",
    "numcode": "152",
    "un_member": "yes",
    "calling_code": "56",
    "cctld": ".cl",
    "spanish_name": "Chile"
  },
  {
    "id": "46",
    "iso2": "CN",
    "short_name": "China",
    "long_name": "People's Republic of China",
    "iso3": "CHN",
    "numcode": "156",
    "un_member": "yes",
    "calling_code": "86",
    "cctld": ".cn",
    "spanish_name": "China"
  },
  {
    "id": "47",
    "iso2": "CX",
    "short_name": "Christmas Island",
    "long_name": "Christmas Island",
    "iso3": "CXR",
    "numcode": "162",
    "un_member": "no",
    "calling_code": "61",
    "cctld": ".cx",
    "spanish_name": "Isla de Navidad, Isla Christmas"
  },
  {
    "id": "48",
    "iso2": "CC",
    "short_name": "Cocos (Keeling) Islands",
    "long_name": "Cocos (Keeling) Islands",
    "iso3": "CCK",
    "numcode": "166",
    "un_member": "no",
    "calling_code": "61",
    "cctld": ".cc",
    "spanish_name": "Islas Cocos"
  },
  {
    "id": "49",
    "iso2": "CO",
    "short_name": "Colombia",
    "long_name": "Republic of Colombia",
    "iso3": "COL",
    "numcode": "170",
    "un_member": "yes",
    "calling_code": "57",
    "cctld": ".co",
    "spanish_name": "Colombia"
  },
  {
    "id": "50",
    "iso2": "KM",
    "short_name": "Comoros",
    "long_name": "Union of the Comoros",
    "iso3": "COM",
    "numcode": "174",
    "un_member": "yes",
    "calling_code": "269",
    "cctld": ".km",
    "spanish_name": "Comores"
  },
  {
    "id": "51",
    "iso2": "CG",
    "short_name": "Congo",
    "long_name": "Republic of the Congo",
    "iso3": "COG",
    "numcode": "178",
    "un_member": "yes",
    "calling_code": "242",
    "cctld": ".cg",
    "spanish_name": "Rep&uacute;blica del Congo"
  },
  {
    "id": "52",
    "iso2": "CK",
    "short_name": "Cook Islands",
    "long_name": "Cook Islands",
    "iso3": "COK",
    "numcode": "184",
    "un_member": "some",
    "calling_code": "682",
    "cctld": ".ck",
    "spanish_name": "Islas Cook"
  },
  {
    "id": "53",
    "iso2": "CR",
    "short_name": "Costa Rica",
    "long_name": "Republic of Costa Rica",
    "iso3": "CRI",
    "numcode": "188",
    "un_member": "yes",
    "calling_code": "506",
    "cctld": ".cr",
    "spanish_name": "Costa Rica"
  },
  {
    "id": "54",
    "iso2": "CI",
    "short_name": "Cote d'ivoire (Ivory Coast)",
    "long_name": "Republic of C&ocirc;te D'Ivoire (Ivory Coast)",
    "iso3": "CIV",
    "numcode": "384",
    "un_member": "yes",
    "calling_code": "225",
    "cctld": ".ci",
    "spanish_name": "Costa de Marfil"
  },
  {
    "id": "55",
    "iso2": "HR",
    "short_name": "Croatia",
    "long_name": "Republic of Croatia",
    "iso3": "HRV",
    "numcode": "191",
    "un_member": "yes",
    "calling_code": "385",
    "cctld": ".hr",
    "spanish_name": "Croacia"
  },
  {
    "id": "56",
    "iso2": "CU",
    "short_name": "Cuba",
    "long_name": "Republic of Cuba",
    "iso3": "CUB",
    "numcode": "192",
    "un_member": "yes",
    "calling_code": "53",
    "cctld": ".cu",
    "spanish_name": "Cuba"
  },
  {
    "id": "57",
    "iso2": "CW",
    "short_name": "Curacao",
    "long_name": "Cura&ccedil;ao",
    "iso3": "CUW",
    "numcode": "531",
    "un_member": "no",
    "calling_code": "599",
    "cctld": ".cw",
    "spanish_name": "Curazao"
  },
  {
    "id": "58",
    "iso2": "CY",
    "short_name": "Cyprus",
    "long_name": "Republic of Cyprus",
    "iso3": "CYP",
    "numcode": "196",
    "un_member": "yes",
    "calling_code": "357",
    "cctld": ".cy",
    "spanish_name": "Chipre"
  },
  {
    "id": "59",
    "iso2": "CZ",
    "short_name": "Czech Republic",
    "long_name": "Czech Republic",
    "iso3": "CZE",
    "numcode": "203",
    "un_member": "yes",
    "calling_code": "420",
    "cctld": ".cz",
    "spanish_name": "Rep&uacute;blica Checa"
  },
  {
    "id": "60",
    "iso2": "CD",
    "short_name": "Democratic Republic of the Congo",
    "long_name": "Democratic Republic of the Congo",
    "iso3": "COD",
    "numcode": "180",
    "un_member": "yes",
    "calling_code": "243",
    "cctld": ".cd",
    "spanish_name": "Rep&uacute;blica Democr&aacute;tica del Congo"
  },
  {
    "id": "61",
    "iso2": "DK",
    "short_name": "Denmark",
    "long_name": "Kingdom of Denmark",
    "iso3": "DNK",
    "numcode": "208",
    "un_member": "yes",
    "calling_code": "45",
    "cctld": ".dk",
    "spanish_name": "Dinamarca"
  },
  {
    "id": "62",
    "iso2": "DJ",
    "short_name": "Djibouti",
    "long_name": "Republic of Djibouti",
    "iso3": "DJI",
    "numcode": "262",
    "un_member": "yes",
    "calling_code": "253",
    "cctld": ".dj",
    "spanish_name": "Djibouti"
  },
  {
    "id": "63",
    "iso2": "DM",
    "short_name": "Dominica",
    "long_name": "Commonwealth of Dominica",
    "iso3": "DMA",
    "numcode": "212",
    "un_member": "yes",
    "calling_code": "1+767",
    "cctld": ".dm",
    "spanish_name": "Dominica"
  },
  {
    "id": "64",
    "iso2": "DO",
    "short_name": "Dominican Republic",
    "long_name": "Dominican Republic",
    "iso3": "DOM",
    "numcode": "214",
    "un_member": "yes",
    "calling_code": "1+809, 8",
    "cctld": ".do",
    "spanish_name": "Rep&uacute;blica Dominicana"
  },
  {
    "id": "65",
    "iso2": "EC",
    "short_name": "Ecuador",
    "long_name": "Republic of Ecuador",
    "iso3": "ECU",
    "numcode": "218",
    "un_member": "yes",
    "calling_code": "593",
    "cctld": ".ec",
    "spanish_name": "Ecuador"
  },
  {
    "id": "66",
    "iso2": "EG",
    "short_name": "Egypt",
    "long_name": "Arab Republic of Egypt",
    "iso3": "EGY",
    "numcode": "818",
    "un_member": "yes",
    "calling_code": "20",
    "cctld": ".eg",
    "spanish_name": "Egiipto"
  },
  {
    "id": "67",
    "iso2": "SV",
    "short_name": "El Salvador",
    "long_name": "Republic of El Salvador",
    "iso3": "SLV",
    "numcode": "222",
    "un_member": "yes",
    "calling_code": "503",
    "cctld": ".sv",
    "spanish_name": "El Salvador"
  },
  {
    "id": "68",
    "iso2": "GQ",
    "short_name": "Equatorial Guinea",
    "long_name": "Republic of Equatorial Guinea",
    "iso3": "GNQ",
    "numcode": "226",
    "un_member": "yes",
    "calling_code": "240",
    "cctld": ".gq",
    "spanish_name": "Guinea Ecuatorial"
  },
  {
    "id": "69",
    "iso2": "ER",
    "short_name": "Eritrea",
    "long_name": "State of Eritrea",
    "iso3": "ERI",
    "numcode": "232",
    "un_member": "yes",
    "calling_code": "291",
    "cctld": ".er",
    "spanish_name": "Eritrea"
  },
  {
    "id": "70",
    "iso2": "EE",
    "short_name": "Estonia",
    "long_name": "Republic of Estonia",
    "iso3": "EST",
    "numcode": "233",
    "un_member": "yes",
    "calling_code": "372",
    "cctld": ".ee",
    "spanish_name": "Estonia"
  },
  {
    "id": "71",
    "iso2": "ET",
    "short_name": "Ethiopia",
    "long_name": "Federal Democratic Republic of Ethiopia",
    "iso3": "ETH",
    "numcode": "231",
    "un_member": "yes",
    "calling_code": "251",
    "cctld": ".et",
    "spanish_name": "Etiop&iacute;a"
  },
  {
    "id": "72",
    "iso2": "FK",
    "short_name": "Falkland Islands (Malvinas)",
    "long_name": "The Falkland Islands (Malvinas)",
    "iso3": "FLK",
    "numcode": "238",
    "un_member": "no",
    "calling_code": "500",
    "cctld": ".fk",
    "spanish_name": "Islas Malvinas"
  },
  {
    "id": "73",
    "iso2": "FO",
    "short_name": "Faroe Islands",
    "long_name": "The Faroe Islands",
    "iso3": "FRO",
    "numcode": "234",
    "un_member": "no",
    "calling_code": "298",
    "cctld": ".fo",
    "spanish_name": "Islas Feroe"
  },
  {
    "id": "74",
    "iso2": "FJ",
    "short_name": "Fiji",
    "long_name": "Republic of Fiji",
    "iso3": "FJI",
    "numcode": "242",
    "un_member": "yes",
    "calling_code": "679",
    "cctld": ".fj",
    "spanish_name": "Fiyi"
  },
  {
    "id": "75",
    "iso2": "FI",
    "short_name": "Finland",
    "long_name": "Republic of Finland",
    "iso3": "FIN",
    "numcode": "246",
    "un_member": "yes",
    "calling_code": "358",
    "cctld": ".fi",
    "spanish_name": "Finlandia"
  },
  {
    "id": "76",
    "iso2": "FR",
    "short_name": "France",
    "long_name": "French Republic",
    "iso3": "FRA",
    "numcode": "250",
    "un_member": "yes",
    "calling_code": "33",
    "cctld": ".fr",
    "spanish_name": "Francia"
  },
  {
    "id": "77",
    "iso2": "GF",
    "short_name": "French Guiana",
    "long_name": "French Guiana",
    "iso3": "GUF",
    "numcode": "254",
    "un_member": "no",
    "calling_code": "594",
    "cctld": ".gf",
    "spanish_name": "Guayana Francesa"
  },
  {
    "id": "78",
    "iso2": "PF",
    "short_name": "French Polynesia",
    "long_name": "French Polynesia",
    "iso3": "PYF",
    "numcode": "258",
    "un_member": "no",
    "calling_code": "689",
    "cctld": ".pf",
    "spanish_name": "Polinesia Francesa"
  },
  {
    "id": "79",
    "iso2": "TF",
    "short_name": "French Southern Territories",
    "long_name": "French Southern Territories",
    "iso3": "ATF",
    "numcode": "260",
    "un_member": "no",
    "calling_code": null,
    "cctld": ".tf",
    "spanish_name": "Tierras Australes Frencesas"
  },
  {
    "id": "80",
    "iso2": "GA",
    "short_name": "Gabon",
    "long_name": "Gabonese Republic",
    "iso3": "GAB",
    "numcode": "266",
    "un_member": "yes",
    "calling_code": "241",
    "cctld": ".ga",
    "spanish_name": "Gab&oacute;n"
  },
  {
    "id": "81",
    "iso2": "GM",
    "short_name": "Gambia",
    "long_name": "Republic of The Gambia",
    "iso3": "GMB",
    "numcode": "270",
    "un_member": "yes",
    "calling_code": "220",
    "cctld": ".gm",
    "spanish_name": "Gambia"
  },
  {
    "id": "82",
    "iso2": "GE",
    "short_name": "Georgia",
    "long_name": "Georgia",
    "iso3": "GEO",
    "numcode": "268",
    "un_member": "yes",
    "calling_code": "995",
    "cctld": ".ge",
    "spanish_name": "Georgia"
  },
  {
    "id": "83",
    "iso2": "DE",
    "short_name": "Germany",
    "long_name": "Federal Republic of Germany",
    "iso3": "DEU",
    "numcode": "276",
    "un_member": "yes",
    "calling_code": "49",
    "cctld": ".de",
    "spanish_name": "Alemania"
  },
  {
    "id": "84",
    "iso2": "GH",
    "short_name": "Ghana",
    "long_name": "Republic of Ghana",
    "iso3": "GHA",
    "numcode": "288",
    "un_member": "yes",
    "calling_code": "233",
    "cctld": ".gh",
    "spanish_name": "Ghana"
  },
  {
    "id": "85",
    "iso2": "GI",
    "short_name": "Gibraltar",
    "long_name": "Gibraltar",
    "iso3": "GIB",
    "numcode": "292",
    "un_member": "no",
    "calling_code": "350",
    "cctld": ".gi",
    "spanish_name": "Gibraltar"
  },
  {
    "id": "86",
    "iso2": "GR",
    "short_name": "Greece",
    "long_name": "Hellenic Republic",
    "iso3": "GRC",
    "numcode": "300",
    "un_member": "yes",
    "calling_code": "30",
    "cctld": ".gr",
    "spanish_name": "Grecia"
  },
  {
    "id": "87",
    "iso2": "GL",
    "short_name": "Greenland",
    "long_name": "Greenland",
    "iso3": "GRL",
    "numcode": "304",
    "un_member": "no",
    "calling_code": "299",
    "cctld": ".gl",
    "spanish_name": "Groenlandia"
  },
  {
    "id": "88",
    "iso2": "GD",
    "short_name": "Grenada",
    "long_name": "Grenada",
    "iso3": "GRD",
    "numcode": "308",
    "un_member": "yes",
    "calling_code": "1+473",
    "cctld": ".gd",
    "spanish_name": "Granada"
  },
  {
    "id": "89",
    "iso2": "GP",
    "short_name": "Guadaloupe",
    "long_name": "Guadeloupe",
    "iso3": "GLP",
    "numcode": "312",
    "un_member": "no",
    "calling_code": "590",
    "cctld": ".gp",
    "spanish_name": "Guadalupe"
  },
  {
    "id": "90",
    "iso2": "GU",
    "short_name": "Guam",
    "long_name": "Guam",
    "iso3": "GUM",
    "numcode": "316",
    "un_member": "no",
    "calling_code": "1+671",
    "cctld": ".gu",
    "spanish_name": "Guam"
  },
  {
    "id": "91",
    "iso2": "GT",
    "short_name": "Guatemala",
    "long_name": "Republic of Guatemala",
    "iso3": "GTM",
    "numcode": "320",
    "un_member": "yes",
    "calling_code": "502",
    "cctld": ".gt",
    "spanish_name": "Guatemala"
  },
  {
    "id": "92",
    "iso2": "GG",
    "short_name": "Guernsey",
    "long_name": "Guernsey",
    "iso3": "GGY",
    "numcode": "831",
    "un_member": "no",
    "calling_code": "44",
    "cctld": ".gg",
    "spanish_name": "Guernsey"
  },
  {
    "id": "93",
    "iso2": "GN",
    "short_name": "Guinea",
    "long_name": "Republic of Guinea",
    "iso3": "GIN",
    "numcode": "324",
    "un_member": "yes",
    "calling_code": "224",
    "cctld": ".gn",
    "spanish_name": "Rep&uacute;blica Guinea"
  },
  {
    "id": "94",
    "iso2": "GW",
    "short_name": "Guinea-Bissau",
    "long_name": "Republic of Guinea-Bissau",
    "iso3": "GNB",
    "numcode": "624",
    "un_member": "yes",
    "calling_code": "245",
    "cctld": ".gw",
    "spanish_name": "Guinea Bissau"
  },
  {
    "id": "95",
    "iso2": "GY",
    "short_name": "Guyana",
    "long_name": "Co-operative Republic of Guyana",
    "iso3": "GUY",
    "numcode": "328",
    "un_member": "yes",
    "calling_code": "592",
    "cctld": ".gy",
    "spanish_name": "Guyana"
  },
  {
    "id": "96",
    "iso2": "HT",
    "short_name": "Haiti",
    "long_name": "Republic of Haiti",
    "iso3": "HTI",
    "numcode": "332",
    "un_member": "yes",
    "calling_code": "509",
    "cctld": ".ht",
    "spanish_name": "Haiti"
  },
  {
    "id": "97",
    "iso2": "HM",
    "short_name": "Heard Island and McDonald Islands",
    "long_name": "Heard Island and McDonald Islands",
    "iso3": "HMD",
    "numcode": "334",
    "un_member": "no",
    "calling_code": "NONE",
    "cctld": ".hm",
    "spanish_name": "Islas de Heard y McDonald"
  },
  {
    "id": "98",
    "iso2": "HN",
    "short_name": "Honduras",
    "long_name": "Republic of Honduras",
    "iso3": "HND",
    "numcode": "340",
    "un_member": "yes",
    "calling_code": "504",
    "cctld": ".hn",
    "spanish_name": "Honduras"
  },
  {
    "id": "99",
    "iso2": "HK",
    "short_name": "Hong Kong",
    "long_name": "Hong Kong",
    "iso3": "HKG",
    "numcode": "344",
    "un_member": "no",
    "calling_code": "852",
    "cctld": ".hk",
    "spanish_name": "Hong Kong"
  },
  {
    "id": "100",
    "iso2": "HU",
    "short_name": "Hungary",
    "long_name": "Hungary",
    "iso3": "HUN",
    "numcode": "348",
    "un_member": "yes",
    "calling_code": "36",
    "cctld": ".hu",
    "spanish_name": "Hungr&iacute;a"
  },
  {
    "id": "101",
    "iso2": "IS",
    "short_name": "Iceland",
    "long_name": "Republic of Iceland",
    "iso3": "ISL",
    "numcode": "352",
    "un_member": "yes",
    "calling_code": "354",
    "cctld": ".is",
    "spanish_name": "Islandia"
  },
  {
    "id": "102",
    "iso2": "IN",
    "short_name": "India",
    "long_name": "Republic of India",
    "iso3": "IND",
    "numcode": "356",
    "un_member": "yes",
    "calling_code": "91",
    "cctld": ".in",
    "spanish_name": "India"
  },
  {
    "id": "103",
    "iso2": "ID",
    "short_name": "Indonesia",
    "long_name": "Republic of Indonesia",
    "iso3": "IDN",
    "numcode": "360",
    "un_member": "yes",
    "calling_code": "62",
    "cctld": ".id",
    "spanish_name": "Indonesia"
  },
  {
    "id": "104",
    "iso2": "IR",
    "short_name": "Iran",
    "long_name": "Islamic Republic of Iran",
    "iso3": "IRN",
    "numcode": "364",
    "un_member": "yes",
    "calling_code": "98",
    "cctld": ".ir",
    "spanish_name": "Ir&aacute;n"
  },
  {
    "id": "105",
    "iso2": "IQ",
    "short_name": "Iraq",
    "long_name": "Republic of Iraq",
    "iso3": "IRQ",
    "numcode": "368",
    "un_member": "yes",
    "calling_code": "964",
    "cctld": ".iq",
    "spanish_name": "Iraq"
  },
  {
    "id": "106",
    "iso2": "IE",
    "short_name": "Ireland",
    "long_name": "Ireland",
    "iso3": "IRL",
    "numcode": "372",
    "un_member": "yes",
    "calling_code": "353",
    "cctld": ".ie",
    "spanish_name": "Irlanda"
  },
  {
    "id": "107",
    "iso2": "IM",
    "short_name": "Isle of Man",
    "long_name": "Isle of Man",
    "iso3": "IMN",
    "numcode": "833",
    "un_member": "no",
    "calling_code": "44",
    "cctld": ".im",
    "spanish_name": "Isla Man"
  },
  {
    "id": "108",
    "iso2": "IL",
    "short_name": "Israel",
    "long_name": "State of Israel",
    "iso3": "ISR",
    "numcode": "376",
    "un_member": "yes",
    "calling_code": "972",
    "cctld": ".il",
    "spanish_name": "Israel"
  },
  {
    "id": "109",
    "iso2": "IT",
    "short_name": "Italy",
    "long_name": "Italian Republic",
    "iso3": "ITA",
    "numcode": "380",
    "un_member": "yes",
    "calling_code": "39",
    "cctld": ".jm",
    "spanish_name": "Italia"
  },
  {
    "id": "110",
    "iso2": "JM",
    "short_name": "Jamaica",
    "long_name": "Jamaica",
    "iso3": "JAM",
    "numcode": "388",
    "un_member": "yes",
    "calling_code": "1+876",
    "cctld": ".jm",
    "spanish_name": "Jamaica"
  },
  {
    "id": "111",
    "iso2": "JP",
    "short_name": "Japan",
    "long_name": "Japan",
    "iso3": "JPN",
    "numcode": "392",
    "un_member": "yes",
    "calling_code": "81",
    "cctld": ".jp",
    "spanish_name": "Jap&oacute;n"
  },
  {
    "id": "112",
    "iso2": "JE",
    "short_name": "Jersey",
    "long_name": "The Bailiwick of Jersey",
    "iso3": "JEY",
    "numcode": "832",
    "un_member": "no",
    "calling_code": "44",
    "cctld": ".je",
    "spanish_name": "Jersey"
  },
  {
    "id": "113",
    "iso2": "JO",
    "short_name": "Jordan",
    "long_name": "Hashemite Kingdom of Jordan",
    "iso3": "JOR",
    "numcode": "400",
    "un_member": "yes",
    "calling_code": "962",
    "cctld": ".jo",
    "spanish_name": "Jordania"
  },
  {
    "id": "114",
    "iso2": "KZ",
    "short_name": "Kazakhstan",
    "long_name": "Republic of Kazakhstan",
    "iso3": "KAZ",
    "numcode": "398",
    "un_member": "yes",
    "calling_code": "7",
    "cctld": ".kz",
    "spanish_name": "Kazajst&aacute;n"
  },
  {
    "id": "115",
    "iso2": "KE",
    "short_name": "Kenya",
    "long_name": "Republic of Kenya",
    "iso3": "KEN",
    "numcode": "404",
    "un_member": "yes",
    "calling_code": "254",
    "cctld": ".ke",
    "spanish_name": "Kenia"
  },
  {
    "id": "116",
    "iso2": "KI",
    "short_name": "Kiribati",
    "long_name": "Republic of Kiribati",
    "iso3": "KIR",
    "numcode": "296",
    "un_member": "yes",
    "calling_code": "686",
    "cctld": ".ki",
    "spanish_name": "Kiribati"
  },
  {
    "id": "117",
    "iso2": "XK",
    "short_name": "Kosovo",
    "long_name": "Republic of Kosovo",
    "iso3": "---",
    "numcode": "---",
    "un_member": "some",
    "calling_code": "381",
    "cctld": "",
    "spanish_name": "Kosovo"
  },
  {
    "id": "118",
    "iso2": "KW",
    "short_name": "Kuwait",
    "long_name": "State of Kuwait",
    "iso3": "KWT",
    "numcode": "414",
    "un_member": "yes",
    "calling_code": "965",
    "cctld": ".kw",
    "spanish_name": "Kuwait"
  },
  {
    "id": "119",
    "iso2": "KG",
    "short_name": "Kyrgyzstan",
    "long_name": "Kyrgyz Republic",
    "iso3": "KGZ",
    "numcode": "417",
    "un_member": "yes",
    "calling_code": "996",
    "cctld": ".kg",
    "spanish_name": "Kirguist&aacute;n"
  },
  {
    "id": "120",
    "iso2": "LA",
    "short_name": "Laos",
    "long_name": "Lao People's Democratic Republic",
    "iso3": "LAO",
    "numcode": "418",
    "un_member": "yes",
    "calling_code": "856",
    "cctld": ".la",
    "spanish_name": "Laos"
  },
  {
    "id": "121",
    "iso2": "LV",
    "short_name": "Latvia",
    "long_name": "Republic of Latvia",
    "iso3": "LVA",
    "numcode": "428",
    "un_member": "yes",
    "calling_code": "371",
    "cctld": ".lv",
    "spanish_name": "Letonia"
  },
  {
    "id": "122",
    "iso2": "LB",
    "short_name": "Lebanon",
    "long_name": "Republic of Lebanon",
    "iso3": "LBN",
    "numcode": "422",
    "un_member": "yes",
    "calling_code": "961",
    "cctld": ".lb",
    "spanish_name": "L&iacute;bano"
  },
  {
    "id": "123",
    "iso2": "LS",
    "short_name": "Lesotho",
    "long_name": "Kingdom of Lesotho",
    "iso3": "LSO",
    "numcode": "426",
    "un_member": "yes",
    "calling_code": "266",
    "cctld": ".ls",
    "spanish_name": "Lesotho"
  },
  {
    "id": "124",
    "iso2": "LR",
    "short_name": "Liberia",
    "long_name": "Republic of Liberia",
    "iso3": "LBR",
    "numcode": "430",
    "un_member": "yes",
    "calling_code": "231",
    "cctld": ".lr",
    "spanish_name": "Liberia"
  },
  {
    "id": "125",
    "iso2": "LY",
    "short_name": "Libya",
    "long_name": "Libya",
    "iso3": "LBY",
    "numcode": "434",
    "un_member": "yes",
    "calling_code": "218",
    "cctld": ".ly",
    "spanish_name": "Libia"
  },
  {
    "id": "126",
    "iso2": "LI",
    "short_name": "Liechtenstein",
    "long_name": "Principality of Liechtenstein",
    "iso3": "LIE",
    "numcode": "438",
    "un_member": "yes",
    "calling_code": "423",
    "cctld": ".li",
    "spanish_name": "Liechtenstein"
  },
  {
    "id": "127",
    "iso2": "LT",
    "short_name": "Lithuania",
    "long_name": "Republic of Lithuania",
    "iso3": "LTU",
    "numcode": "440",
    "un_member": "yes",
    "calling_code": "370",
    "cctld": ".lt",
    "spanish_name": "Lituania"
  },
  {
    "id": "128",
    "iso2": "LU",
    "short_name": "Luxembourg",
    "long_name": "Grand Duchy of Luxembourg",
    "iso3": "LUX",
    "numcode": "442",
    "un_member": "yes",
    "calling_code": "352",
    "cctld": ".lu",
    "spanish_name": "Luxemburgo"
  },
  {
    "id": "129",
    "iso2": "MO",
    "short_name": "Macao",
    "long_name": "The Macao Special Administrative Region",
    "iso3": "MAC",
    "numcode": "446",
    "un_member": "no",
    "calling_code": "853",
    "cctld": ".mo",
    "spanish_name": "Macao"
  },
  {
    "id": "130",
    "iso2": "MK",
    "short_name": "Macedonia",
    "long_name": "The Former Yugoslav Republic of Macedonia",
    "iso3": "MKD",
    "numcode": "807",
    "un_member": "yes",
    "calling_code": "389",
    "cctld": ".mk",
    "spanish_name": "Macedonia"
  },
  {
    "id": "131",
    "iso2": "MG",
    "short_name": "Madagascar",
    "long_name": "Republic of Madagascar",
    "iso3": "MDG",
    "numcode": "450",
    "un_member": "yes",
    "calling_code": "261",
    "cctld": ".mg",
    "spanish_name": "Madagascar"
  },
  {
    "id": "132",
    "iso2": "MW",
    "short_name": "Malawi",
    "long_name": "Republic of Malawi",
    "iso3": "MWI",
    "numcode": "454",
    "un_member": "yes",
    "calling_code": "265",
    "cctld": ".mw",
    "spanish_name": "Malawi"
  },
  {
    "id": "133",
    "iso2": "MY",
    "short_name": "Malaysia",
    "long_name": "Malaysia",
    "iso3": "MYS",
    "numcode": "458",
    "un_member": "yes",
    "calling_code": "60",
    "cctld": ".my",
    "spanish_name": "Malasia"
  },
  {
    "id": "134",
    "iso2": "MV",
    "short_name": "Maldives",
    "long_name": "Republic of Maldives",
    "iso3": "MDV",
    "numcode": "462",
    "un_member": "yes",
    "calling_code": "960",
    "cctld": ".mv",
    "spanish_name": "Maldivas"
  },
  {
    "id": "135",
    "iso2": "ML",
    "short_name": "Mali",
    "long_name": "Republic of Mali",
    "iso3": "MLI",
    "numcode": "466",
    "un_member": "yes",
    "calling_code": "223",
    "cctld": ".ml",
    "spanish_name": "Mal&iacute;"
  },
  {
    "id": "136",
    "iso2": "MT",
    "short_name": "Malta",
    "long_name": "Republic of Malta",
    "iso3": "MLT",
    "numcode": "470",
    "un_member": "yes",
    "calling_code": "356",
    "cctld": ".mt",
    "spanish_name": "Malta"
  },
  {
    "id": "137",
    "iso2": "MH",
    "short_name": "Marshall Islands",
    "long_name": "Republic of the Marshall Islands",
    "iso3": "MHL",
    "numcode": "584",
    "un_member": "yes",
    "calling_code": "692",
    "cctld": ".mh",
    "spanish_name": "Islas Marshall"
  },
  {
    "id": "138",
    "iso2": "MQ",
    "short_name": "Martinique",
    "long_name": "Martinique",
    "iso3": "MTQ",
    "numcode": "474",
    "un_member": "no",
    "calling_code": "596",
    "cctld": ".mq",
    "spanish_name": "Martinica"
  },
  {
    "id": "139",
    "iso2": "MR",
    "short_name": "Mauritania",
    "long_name": "Islamic Republic of Mauritania",
    "iso3": "MRT",
    "numcode": "478",
    "un_member": "yes",
    "calling_code": "222",
    "cctld": ".mr",
    "spanish_name": "Mauritania"
  },
  {
    "id": "140",
    "iso2": "MU",
    "short_name": "Mauritius",
    "long_name": "Republic of Mauritius",
    "iso3": "MUS",
    "numcode": "480",
    "un_member": "yes",
    "calling_code": "230",
    "cctld": ".mu",
    "spanish_name": "Mauricio"
  },
  {
    "id": "141",
    "iso2": "YT",
    "short_name": "Mayotte",
    "long_name": "Mayotte",
    "iso3": "MYT",
    "numcode": "175",
    "un_member": "no",
    "calling_code": "262",
    "cctld": ".yt",
    "spanish_name": "Mayotte"
  },
  {
    "id": "142",
    "iso2": "MX",
    "short_name": "Mexico",
    "long_name": "United Mexican States",
    "iso3": "MEX",
    "numcode": "484",
    "un_member": "yes",
    "calling_code": "52",
    "cctld": ".mx",
    "spanish_name": "M&eacute;xico"
  },
  {
    "id": "143",
    "iso2": "FM",
    "short_name": "Micronesia",
    "long_name": "Federated States of Micronesia",
    "iso3": "FSM",
    "numcode": "583",
    "un_member": "yes",
    "calling_code": "691",
    "cctld": ".fm",
    "spanish_name": "Micronesia"
  },
  {
    "id": "144",
    "iso2": "MD",
    "short_name": "Moldava",
    "long_name": "Republic of Moldova",
    "iso3": "MDA",
    "numcode": "498",
    "un_member": "yes",
    "calling_code": "373",
    "cctld": ".md",
    "spanish_name": "Modavia"
  },
  {
    "id": "145",
    "iso2": "MC",
    "short_name": "Monaco",
    "long_name": "Principality of Monaco",
    "iso3": "MCO",
    "numcode": "492",
    "un_member": "yes",
    "calling_code": "377",
    "cctld": ".mc",
    "spanish_name": "M&oacute;naco"
  },
  {
    "id": "146",
    "iso2": "MN",
    "short_name": "Mongolia",
    "long_name": "Mongolia",
    "iso3": "MNG",
    "numcode": "496",
    "un_member": "yes",
    "calling_code": "976",
    "cctld": ".mn",
    "spanish_name": "Mongolia"
  },
  {
    "id": "147",
    "iso2": "ME",
    "short_name": "Montenegro",
    "long_name": "Montenegro",
    "iso3": "MNE",
    "numcode": "499",
    "un_member": "yes",
    "calling_code": "382",
    "cctld": ".me",
    "spanish_name": "Montenegro"
  },
  {
    "id": "148",
    "iso2": "MS",
    "short_name": "Montserrat",
    "long_name": "Montserrat",
    "iso3": "MSR",
    "numcode": "500",
    "un_member": "no",
    "calling_code": "1+664",
    "cctld": ".ms",
    "spanish_name": "Montserrat"
  },
  {
    "id": "149",
    "iso2": "MA",
    "short_name": "Morocco",
    "long_name": "Kingdom of Morocco",
    "iso3": "MAR",
    "numcode": "504",
    "un_member": "yes",
    "calling_code": "212",
    "cctld": ".ma",
    "spanish_name": "Marruecos"
  },
  {
    "id": "150",
    "iso2": "MZ",
    "short_name": "Mozambique",
    "long_name": "Republic of Mozambique",
    "iso3": "MOZ",
    "numcode": "508",
    "un_member": "yes",
    "calling_code": "258",
    "cctld": ".mz",
    "spanish_name": "Mozambique"
  },
  {
    "id": "151",
    "iso2": "MM",
    "short_name": "Myanmar (Burma)",
    "long_name": "Republic of the Union of Myanmar",
    "iso3": "MMR",
    "numcode": "104",
    "un_member": "yes",
    "calling_code": "95",
    "cctld": ".mm",
    "spanish_name": "Myanmar (Birmania)"
  },
  {
    "id": "152",
    "iso2": "NA",
    "short_name": "Namibia",
    "long_name": "Republic of Namibia",
    "iso3": "NAM",
    "numcode": "516",
    "un_member": "yes",
    "calling_code": "264",
    "cctld": ".na",
    "spanish_name": "Namibia"
  },
  {
    "id": "153",
    "iso2": "NR",
    "short_name": "Nauru",
    "long_name": "Republic of Nauru",
    "iso3": "NRU",
    "numcode": "520",
    "un_member": "yes",
    "calling_code": "674",
    "cctld": ".nr",
    "spanish_name": "Nauru"
  },
  {
    "id": "154",
    "iso2": "NP",
    "short_name": "Nepal",
    "long_name": "Federal Democratic Republic of Nepal",
    "iso3": "NPL",
    "numcode": "524",
    "un_member": "yes",
    "calling_code": "977",
    "cctld": ".np",
    "spanish_name": "Nepal"
  },
  {
    "id": "155",
    "iso2": "NL",
    "short_name": "Netherlands",
    "long_name": "Kingdom of the Netherlands",
    "iso3": "NLD",
    "numcode": "528",
    "un_member": "yes",
    "calling_code": "31",
    "cctld": ".nl",
    "spanish_name": "Pa&iacute;ses Bajos, Holanda"
  },
  {
    "id": "156",
    "iso2": "NC",
    "short_name": "New Caledonia",
    "long_name": "New Caledonia",
    "iso3": "NCL",
    "numcode": "540",
    "un_member": "no",
    "calling_code": "687",
    "cctld": ".nc",
    "spanish_name": "Nueva Caledonia"
  },
  {
    "id": "157",
    "iso2": "NZ",
    "short_name": "New Zealand",
    "long_name": "New Zealand",
    "iso3": "NZL",
    "numcode": "554",
    "un_member": "yes",
    "calling_code": "64",
    "cctld": ".nz",
    "spanish_name": "Nueva Zelanda"
  },
  {
    "id": "158",
    "iso2": "NI",
    "short_name": "Nicaragua",
    "long_name": "Republic of Nicaragua",
    "iso3": "NIC",
    "numcode": "558",
    "un_member": "yes",
    "calling_code": "505",
    "cctld": ".ni",
    "spanish_name": "Nicaragua"
  },
  {
    "id": "159",
    "iso2": "NE",
    "short_name": "Niger",
    "long_name": "Republic of Niger",
    "iso3": "NER",
    "numcode": "562",
    "un_member": "yes",
    "calling_code": "227",
    "cctld": ".ne",
    "spanish_name": "Niger"
  },
  {
    "id": "160",
    "iso2": "NG",
    "short_name": "Nigeria",
    "long_name": "Federal Republic of Nigeria",
    "iso3": "NGA",
    "numcode": "566",
    "un_member": "yes",
    "calling_code": "234",
    "cctld": ".ng",
    "spanish_name": "Nigeria"
  },
  {
    "id": "161",
    "iso2": "NU",
    "short_name": "Niue",
    "long_name": "Niue",
    "iso3": "NIU",
    "numcode": "570",
    "un_member": "some",
    "calling_code": "683",
    "cctld": ".nu",
    "spanish_name": "Niue"
  },
  {
    "id": "162",
    "iso2": "NF",
    "short_name": "Norfolk Island",
    "long_name": "Norfolk Island",
    "iso3": "NFK",
    "numcode": "574",
    "un_member": "no",
    "calling_code": "672",
    "cctld": ".nf",
    "spanish_name": "Norfolk Island"
  },
  {
    "id": "163",
    "iso2": "KP",
    "short_name": "North Korea",
    "long_name": "Democratic People's Republic of Korea",
    "iso3": "PRK",
    "numcode": "408",
    "un_member": "yes",
    "calling_code": "850",
    "cctld": ".kp",
    "spanish_name": "Corea del Norte"
  },
  {
    "id": "164",
    "iso2": "MP",
    "short_name": "Northern Mariana Islands",
    "long_name": "Northern Mariana Islands",
    "iso3": "MNP",
    "numcode": "580",
    "un_member": "no",
    "calling_code": "1+670",
    "cctld": ".mp",
    "spanish_name": "Marianas del Norte"
  },
  {
    "id": "165",
    "iso2": "NO",
    "short_name": "Norway",
    "long_name": "Kingdom of Norway",
    "iso3": "NOR",
    "numcode": "578",
    "un_member": "yes",
    "calling_code": "47",
    "cctld": ".no",
    "spanish_name": "Noruega"
  },
  {
    "id": "166",
    "iso2": "OM",
    "short_name": "Oman",
    "long_name": "Sultanate of Oman",
    "iso3": "OMN",
    "numcode": "512",
    "un_member": "yes",
    "calling_code": "968",
    "cctld": ".om",
    "spanish_name": "Om&aacute;man"
  },
  {
    "id": "167",
    "iso2": "PK",
    "short_name": "Pakistan",
    "long_name": "Islamic Republic of Pakistan",
    "iso3": "PAK",
    "numcode": "586",
    "un_member": "yes",
    "calling_code": "92",
    "cctld": ".pk",
    "spanish_name": "Pakist&aacute;n"
  },
  {
    "id": "168",
    "iso2": "PW",
    "short_name": "Palau",
    "long_name": "Republic of Palau",
    "iso3": "PLW",
    "numcode": "585",
    "un_member": "yes",
    "calling_code": "680",
    "cctld": ".pw",
    "spanish_name": "Palau"
  },
  {
    "id": "169",
    "iso2": "PS",
    "short_name": "Palestine",
    "long_name": "State of Palestine (or Occupied Palestinian Territory)",
    "iso3": "PSE",
    "numcode": "275",
    "un_member": "some",
    "calling_code": "970",
    "cctld": ".ps",
    "spanish_name": "Palestina"
  },
  {
    "id": "170",
    "iso2": "PA",
    "short_name": "Panama",
    "long_name": "Republic of Panama",
    "iso3": "PAN",
    "numcode": "591",
    "un_member": "yes",
    "calling_code": "507",
    "cctld": ".pa",
    "spanish_name": "Panam&aacute;"
  },
  {
    "id": "171",
    "iso2": "PG",
    "short_name": "Papua New Guinea",
    "long_name": "Independent State of Papua New Guinea",
    "iso3": "PNG",
    "numcode": "598",
    "un_member": "yes",
    "calling_code": "675",
    "cctld": ".pg",
    "spanish_name": "Pap&uacute;a-Nueva Guinea"
  },
  {
    "id": "172",
    "iso2": "PY",
    "short_name": "Paraguay",
    "long_name": "Republic of Paraguay",
    "iso3": "PRY",
    "numcode": "600",
    "un_member": "yes",
    "calling_code": "595",
    "cctld": ".py",
    "spanish_name": "Paraguay"
  },
  {
    "id": "173",
    "iso2": "PE",
    "short_name": "Peru",
    "long_name": "Republic of Peru",
    "iso3": "PER",
    "numcode": "604",
    "un_member": "yes",
    "calling_code": "51",
    "cctld": ".pe",
    "spanish_name": "Per&uacute;"
  },
  {
    "id": "174",
    "iso2": "PH",
    "short_name": "Phillipines",
    "long_name": "Republic of the Philippines",
    "iso3": "PHL",
    "numcode": "608",
    "un_member": "yes",
    "calling_code": "63",
    "cctld": ".ph",
    "spanish_name": "Filipinas"
  },
  {
    "id": "175",
    "iso2": "PN",
    "short_name": "Pitcairn",
    "long_name": "Pitcairn",
    "iso3": "PCN",
    "numcode": "612",
    "un_member": "no",
    "calling_code": "NONE",
    "cctld": ".pn",
    "spanish_name": "Isla Pitcairn"
  },
  {
    "id": "176",
    "iso2": "PL",
    "short_name": "Poland",
    "long_name": "Republic of Poland",
    "iso3": "POL",
    "numcode": "616",
    "un_member": "yes",
    "calling_code": "48",
    "cctld": ".pl",
    "spanish_name": "Polonia"
  },
  {
    "id": "177",
    "iso2": "PT",
    "short_name": "Portugal",
    "long_name": "Portuguese Republic",
    "iso3": "PRT",
    "numcode": "620",
    "un_member": "yes",
    "calling_code": "351",
    "cctld": ".pt",
    "spanish_name": "Portugal"
  },
  {
    "id": "178",
    "iso2": "PR",
    "short_name": "Puerto Rico",
    "long_name": "Commonwealth of Puerto Rico",
    "iso3": "PRI",
    "numcode": "630",
    "un_member": "no",
    "calling_code": "1+939",
    "cctld": ".pr",
    "spanish_name": "Puerto Rico"
  },
  {
    "id": "179",
    "iso2": "QA",
    "short_name": "Qatar",
    "long_name": "State of Qatar",
    "iso3": "QAT",
    "numcode": "634",
    "un_member": "yes",
    "calling_code": "974",
    "cctld": ".qa",
    "spanish_name": "Qatar"
  },
  {
    "id": "180",
    "iso2": "RE",
    "short_name": "Reunion",
    "long_name": "R&eacute;union",
    "iso3": "REU",
    "numcode": "638",
    "un_member": "no",
    "calling_code": "262",
    "cctld": ".re",
    "spanish_name": "Reuni&oacute;n"
  },
  {
    "id": "181",
    "iso2": "RO",
    "short_name": "Romania",
    "long_name": "Romania",
    "iso3": "ROU",
    "numcode": "642",
    "un_member": "yes",
    "calling_code": "40",
    "cctld": ".ro",
    "spanish_name": "Rumania"
  },
  {
    "id": "182",
    "iso2": "RU",
    "short_name": "Russia",
    "long_name": "Russian Federation",
    "iso3": "RUS",
    "numcode": "643",
    "un_member": "yes",
    "calling_code": "7",
    "cctld": ".ru",
    "spanish_name": "Federaci&oacute;n Rusa"
  },
  {
    "id": "183",
    "iso2": "RW",
    "short_name": "Rwanda",
    "long_name": "Republic of Rwanda",
    "iso3": "RWA",
    "numcode": "646",
    "un_member": "yes",
    "calling_code": "250",
    "cctld": ".rw",
    "spanish_name": "Ruanda"
  },
  {
    "id": "184",
    "iso2": "BL",
    "short_name": "Saint Barthelemy",
    "long_name": "Saint Barth&eacute;lemy",
    "iso3": "BLM",
    "numcode": "652",
    "un_member": "no",
    "calling_code": "590",
    "cctld": ".bl",
    "spanish_name": "San Barolom&eacute;"
  },
  {
    "id": "185",
    "iso2": "SH",
    "short_name": "Saint Helena",
    "long_name": "Saint Helena, Ascension and Tristan da Cunha",
    "iso3": "SHN",
    "numcode": "654",
    "un_member": "no",
    "calling_code": "290",
    "cctld": ".sh",
    "spanish_name": "Santa Elena"
  },
  {
    "id": "186",
    "iso2": "KN",
    "short_name": "Saint Kitts and Nevis",
    "long_name": "Federation of Saint Christopher and Nevis",
    "iso3": "KNA",
    "numcode": "659",
    "un_member": "yes",
    "calling_code": "1+869",
    "cctld": ".kn",
    "spanish_name": "San Cristobal y Nevis"
  },
  {
    "id": "187",
    "iso2": "LC",
    "short_name": "Saint Lucia",
    "long_name": "Saint Lucia",
    "iso3": "LCA",
    "numcode": "662",
    "un_member": "yes",
    "calling_code": "1+758",
    "cctld": ".lc",
    "spanish_name": "Santa Luc&iacute;a"
  },
  {
    "id": "188",
    "iso2": "MF",
    "short_name": "Saint Martin",
    "long_name": "Saint Martin",
    "iso3": "MAF",
    "numcode": "663",
    "un_member": "no",
    "calling_code": "590",
    "cctld": ".mf",
    "spanish_name": "San Mart&iacute;n"
  },
  {
    "id": "189",
    "iso2": "PM",
    "short_name": "Saint Pierre and Miquelon",
    "long_name": "Saint Pierre and Miquelon",
    "iso3": "SPM",
    "numcode": "666",
    "un_member": "no",
    "calling_code": "508",
    "cctld": ".pm",
    "spanish_name": "San Pedro y Miquel&oacute;n"
  },
  {
    "id": "190",
    "iso2": "VC",
    "short_name": "Saint Vincent and the Grenadines",
    "long_name": "Saint Vincent and the Grenadines",
    "iso3": "VCT",
    "numcode": "670",
    "un_member": "yes",
    "calling_code": "1+784",
    "cctld": ".vc",
    "spanish_name": "San Vincente y Granadinas"
  },
  {
    "id": "191",
    "iso2": "WS",
    "short_name": "Samoa",
    "long_name": "Independent State of Samoa",
    "iso3": "WSM",
    "numcode": "882",
    "un_member": "yes",
    "calling_code": "685",
    "cctld": ".ws",
    "spanish_name": "Samoa"
  },
  {
    "id": "192",
    "iso2": "SM",
    "short_name": "San Marino",
    "long_name": "Republic of San Marino",
    "iso3": "SMR",
    "numcode": "674",
    "un_member": "yes",
    "calling_code": "378",
    "cctld": ".sm",
    "spanish_name": "San Marino"
  },
  {
    "id": "193",
    "iso2": "ST",
    "short_name": "Sao Tome and Principe",
    "long_name": "Democratic Republic of S&atilde;o Tom&eacute; and Pr&iacute;ncipe",
    "iso3": "STP",
    "numcode": "678",
    "un_member": "yes",
    "calling_code": "239",
    "cctld": ".st",
    "spanish_name": "San Tom&eacute; y Principe"
  },
  {
    "id": "194",
    "iso2": "SA",
    "short_name": "Saudi Arabia",
    "long_name": "Kingdom of Saudi Arabia",
    "iso3": "SAU",
    "numcode": "682",
    "un_member": "yes",
    "calling_code": "966",
    "cctld": ".sa",
    "spanish_name": "Arabia Saudita"
  },
  {
    "id": "195",
    "iso2": "SN",
    "short_name": "Senegal",
    "long_name": "Republic of Senegal",
    "iso3": "SEN",
    "numcode": "686",
    "un_member": "yes",
    "calling_code": "221",
    "cctld": ".sn",
    "spanish_name": "Senegal"
  },
  {
    "id": "196",
    "iso2": "RS",
    "short_name": "Serbia",
    "long_name": "Republic of Serbia",
    "iso3": "SRB",
    "numcode": "688",
    "un_member": "yes",
    "calling_code": "381",
    "cctld": ".rs",
    "spanish_name": "Serbia"
  },
  {
    "id": "197",
    "iso2": "SC",
    "short_name": "Seychelles",
    "long_name": "Republic of Seychelles",
    "iso3": "SYC",
    "numcode": "690",
    "un_member": "yes",
    "calling_code": "248",
    "cctld": ".sc",
    "spanish_name": "Seychelles"
  },
  {
    "id": "198",
    "iso2": "SL",
    "short_name": "Sierra Leone",
    "long_name": "Republic of Sierra Leone",
    "iso3": "SLE",
    "numcode": "694",
    "un_member": "yes",
    "calling_code": "232",
    "cctld": ".sl",
    "spanish_name": "Sierra Leona"
  },
  {
    "id": "199",
    "iso2": "SG",
    "short_name": "Singapore",
    "long_name": "Republic of Singapore",
    "iso3": "SGP",
    "numcode": "702",
    "un_member": "yes",
    "calling_code": "65",
    "cctld": ".sg",
    "spanish_name": "Singapur"
  },
  {
    "id": "200",
    "iso2": "SX",
    "short_name": "Sint Maarten",
    "long_name": "Sint Maarten",
    "iso3": "SXM",
    "numcode": "534",
    "un_member": "no",
    "calling_code": "1+721",
    "cctld": ".sx",
    "spanish_name": "Sint Maarten"
  },
  {
    "id": "201",
    "iso2": "SK",
    "short_name": "Slovakia",
    "long_name": "Slovak Republic",
    "iso3": "SVK",
    "numcode": "703",
    "un_member": "yes",
    "calling_code": "421",
    "cctld": ".sk",
    "spanish_name": "Eslovaquia"
  },
  {
    "id": "202",
    "iso2": "SI",
    "short_name": "Slovenia",
    "long_name": "Republic of Slovenia",
    "iso3": "SVN",
    "numcode": "705",
    "un_member": "yes",
    "calling_code": "386",
    "cctld": ".si",
    "spanish_name": "Eslovenia"
  },
  {
    "id": "203",
    "iso2": "SB",
    "short_name": "Solomon Islands",
    "long_name": "Solomon Islands",
    "iso3": "SLB",
    "numcode": "090",
    "un_member": "yes",
    "calling_code": "677",
    "cctld": ".sb",
    "spanish_name": "Islas Salom&oacute;n"
  },
  {
    "id": "204",
    "iso2": "SO",
    "short_name": "Somalia",
    "long_name": "Somali Republic",
    "iso3": "SOM",
    "numcode": "706",
    "un_member": "yes",
    "calling_code": "252",
    "cctld": ".so",
    "spanish_name": "Somalia"
  },
  {
    "id": "205",
    "iso2": "ZA",
    "short_name": "South Africa",
    "long_name": "Republic of South Africa",
    "iso3": "ZAF",
    "numcode": "710",
    "un_member": "yes",
    "calling_code": "27",
    "cctld": ".za",
    "spanish_name": "Sud&aacute;frica"
  },
  {
    "id": "206",
    "iso2": "GS",
    "short_name": "South Georgia and the South Sandwich Islands",
    "long_name": "South Georgia and the South Sandwich Islands",
    "iso3": "SGS",
    "numcode": "239",
    "un_member": "no",
    "calling_code": "500",
    "cctld": ".gs",
    "spanish_name": "Sudo Georgia y los Islas Sandwich del Sur"
  },
  {
    "id": "207",
    "iso2": "KR",
    "short_name": "South Korea",
    "long_name": "Republic of Korea",
    "iso3": "KOR",
    "numcode": "410",
    "un_member": "yes",
    "calling_code": "82",
    "cctld": ".kr",
    "spanish_name": "Corea del Sur"
  },
  {
    "id": "208",
    "iso2": "SS",
    "short_name": "South Sudan",
    "long_name": "Republic of South Sudan",
    "iso3": "SSD",
    "numcode": "728",
    "un_member": "yes",
    "calling_code": "211",
    "cctld": ".ss",
    "spanish_name": "Sud&aacute;n del Sur"
  },
  {
    "id": "209",
    "iso2": "ES",
    "short_name": "Spain",
    "long_name": "Kingdom of Spain",
    "iso3": "ESP",
    "numcode": "724",
    "un_member": "yes",
    "calling_code": "34",
    "cctld": ".es",
    "spanish_name": "Espa&ntilde;a"
  },
  {
    "id": "210",
    "iso2": "LK",
    "short_name": "Sri Lanka",
    "long_name": "Democratic Socialist Republic of Sri Lanka",
    "iso3": "LKA",
    "numcode": "144",
    "un_member": "yes",
    "calling_code": "94",
    "cctld": ".lk",
    "spanish_name": "Sri Lanka"
  },
  {
    "id": "211",
    "iso2": "SD",
    "short_name": "Sudan",
    "long_name": "Republic of the Sudan",
    "iso3": "SDN",
    "numcode": "729",
    "un_member": "yes",
    "calling_code": "249",
    "cctld": ".sd",
    "spanish_name": "Sud&aacute;n"
  },
  {
    "id": "212",
    "iso2": "SR",
    "short_name": "Suriname",
    "long_name": "Republic of Suriname",
    "iso3": "SUR",
    "numcode": "740",
    "un_member": "yes",
    "calling_code": "597",
    "cctld": ".sr",
    "spanish_name": "Surinam"
  },
  {
    "id": "213",
    "iso2": "SJ",
    "short_name": "Svalbard and Jan Mayen",
    "long_name": "Svalbard and Jan Mayen",
    "iso3": "SJM",
    "numcode": "744",
    "un_member": "no",
    "calling_code": "47",
    "cctld": ".sj",
    "spanish_name": "Isla Jan Mayen y Archipi&eacute;lago de Svalbard"
  },
  {
    "id": "214",
    "iso2": "SZ",
    "short_name": "Swaziland",
    "long_name": "Kingdom of Swaziland",
    "iso3": "SWZ",
    "numcode": "748",
    "un_member": "yes",
    "calling_code": "268",
    "cctld": ".sz",
    "spanish_name": "Swazilandia"
  },
  {
    "id": "215",
    "iso2": "SE",
    "short_name": "Sweden",
    "long_name": "Kingdom of Sweden",
    "iso3": "SWE",
    "numcode": "752",
    "un_member": "yes",
    "calling_code": "46",
    "cctld": ".se",
    "spanish_name": "Suecia"
  },
  {
    "id": "216",
    "iso2": "CH",
    "short_name": "Switzerland",
    "long_name": "Swiss Confederation",
    "iso3": "CHE",
    "numcode": "756",
    "un_member": "yes",
    "calling_code": "41",
    "cctld": ".ch",
    "spanish_name": "Suiza"
  },
  {
    "id": "217",
    "iso2": "SY",
    "short_name": "Syria",
    "long_name": "Syrian Arab Republic",
    "iso3": "SYR",
    "numcode": "760",
    "un_member": "yes",
    "calling_code": "963",
    "cctld": ".sy",
    "spanish_name": "Siria"
  },
  {
    "id": "218",
    "iso2": "TW",
    "short_name": "Taiwan",
    "long_name": "Republic of China (Taiwan)",
    "iso3": "TWN",
    "numcode": "158",
    "un_member": "former",
    "calling_code": "886",
    "cctld": ".tw",
    "spanish_name": "Taiwan"
  },
  {
    "id": "219",
    "iso2": "TJ",
    "short_name": "Tajikistan",
    "long_name": "Republic of Tajikistan",
    "iso3": "TJK",
    "numcode": "762",
    "un_member": "yes",
    "calling_code": "992",
    "cctld": ".tj",
    "spanish_name": "Tadjikistan"
  },
  {
    "id": "220",
    "iso2": "TZ",
    "short_name": "Tanzania",
    "long_name": "United Republic of Tanzania",
    "iso3": "TZA",
    "numcode": "834",
    "un_member": "yes",
    "calling_code": "255",
    "cctld": ".tz",
    "spanish_name": "Tanzania"
  },
  {
    "id": "221",
    "iso2": "TH",
    "short_name": "Thailand",
    "long_name": "Kingdom of Thailand",
    "iso3": "THA",
    "numcode": "764",
    "un_member": "yes",
    "calling_code": "66",
    "cctld": ".th",
    "spanish_name": "Tailandia"
  },
  {
    "id": "222",
    "iso2": "TL",
    "short_name": "Timor-Leste (East Timor)",
    "long_name": "Democratic Republic of Timor-Leste",
    "iso3": "TLS",
    "numcode": "626",
    "un_member": "yes",
    "calling_code": "670",
    "cctld": ".tl",
    "spanish_name": "Timor Oriental"
  },
  {
    "id": "223",
    "iso2": "TG",
    "short_name": "Togo",
    "long_name": "Togolese Republic",
    "iso3": "TGO",
    "numcode": "768",
    "un_member": "yes",
    "calling_code": "228",
    "cctld": ".tg",
    "spanish_name": "Togo"
  },
  {
    "id": "224",
    "iso2": "TK",
    "short_name": "Tokelau",
    "long_name": "Tokelau",
    "iso3": "TKL",
    "numcode": "772",
    "un_member": "no",
    "calling_code": "690",
    "cctld": ".tk",
    "spanish_name": "Tokelau"
  },
  {
    "id": "225",
    "iso2": "TO",
    "short_name": "Tonga",
    "long_name": "Kingdom of Tonga",
    "iso3": "TON",
    "numcode": "776",
    "un_member": "yes",
    "calling_code": "676",
    "cctld": ".to",
    "spanish_name": "Tonga"
  },
  {
    "id": "226",
    "iso2": "TT",
    "short_name": "Trinidad and Tobago",
    "long_name": "Republic of Trinidad and Tobago",
    "iso3": "TTO",
    "numcode": "780",
    "un_member": "yes",
    "calling_code": "1+868",
    "cctld": ".tt",
    "spanish_name": "Trinidad y Tobago"
  },
  {
    "id": "227",
    "iso2": "TN",
    "short_name": "Tunisia",
    "long_name": "Republic of Tunisia",
    "iso3": "TUN",
    "numcode": "788",
    "un_member": "yes",
    "calling_code": "216",
    "cctld": ".tn",
    "spanish_name": "T&uacute;ez"
  },
  {
    "id": "228",
    "iso2": "TR",
    "short_name": "Turkey",
    "long_name": "Republic of Turkey",
    "iso3": "TUR",
    "numcode": "792",
    "un_member": "yes",
    "calling_code": "90",
    "cctld": ".tr",
    "spanish_name": "Turqu&iacute;a"
  },
  {
    "id": "229",
    "iso2": "TM",
    "short_name": "Turkmenistan",
    "long_name": "Turkmenistan",
    "iso3": "TKM",
    "numcode": "795",
    "un_member": "yes",
    "calling_code": "993",
    "cctld": ".tm",
    "spanish_name": "Turkmenistan"
  },
  {
    "id": "230",
    "iso2": "TC",
    "short_name": "Turks and Caicos Islands",
    "long_name": "Turks and Caicos Islands",
    "iso3": "TCA",
    "numcode": "796",
    "un_member": "no",
    "calling_code": "1+649",
    "cctld": ".tc",
    "spanish_name": "Islas Turcas y Caicos"
  },
  {
    "id": "231",
    "iso2": "TV",
    "short_name": "Tuvalu",
    "long_name": "Tuvalu",
    "iso3": "TUV",
    "numcode": "798",
    "un_member": "yes",
    "calling_code": "688",
    "cctld": ".tv",
    "spanish_name": "Tuvalu"
  },
  {
    "id": "232",
    "iso2": "UG",
    "short_name": "Uganda",
    "long_name": "Republic of Uganda",
    "iso3": "UGA",
    "numcode": "800",
    "un_member": "yes",
    "calling_code": "256",
    "cctld": ".ug",
    "spanish_name": "Uganda"
  },
  {
    "id": "233",
    "iso2": "UA",
    "short_name": "Ukraine",
    "long_name": "Ukraine",
    "iso3": "UKR",
    "numcode": "804",
    "un_member": "yes",
    "calling_code": "380",
    "cctld": ".ua",
    "spanish_name": "Ucrania"
  },
  {
    "id": "234",
    "iso2": "AE",
    "short_name": "United Arab Emirates",
    "long_name": "United Arab Emirates",
    "iso3": "ARE",
    "numcode": "784",
    "un_member": "yes",
    "calling_code": "971",
    "cctld": ".ae",
    "spanish_name": "Emiratos &Aacute;rebes Unidos"
  },
  {
    "id": "235",
    "iso2": "GB",
    "short_name": "United Kingdom",
    "long_name": "United Kingdom of Great Britain and Nothern Ireland",
    "iso3": "GBR",
    "numcode": "826",
    "un_member": "yes",
    "calling_code": "44",
    "cctld": ".uk",
    "spanish_name": "Reino Unido"
  },
  {
    "id": "236",
    "iso2": "US",
    "short_name": "United States",
    "long_name": "United States of America",
    "iso3": "USA",
    "numcode": "840",
    "un_member": "yes",
    "calling_code": "1",
    "cctld": ".us",
    "spanish_name": "Estados Unidos"
  },
  {
    "id": "237",
    "iso2": "UM",
    "short_name": "United States Minor Outlying Islands",
    "long_name": "United States Minor Outlying Islands",
    "iso3": "UMI",
    "numcode": "581",
    "un_member": "no",
    "calling_code": "NONE",
    "cctld": "NONE",
    "spanish_name": "Islas ultramarinas menores de Estados Unidos"
  },
  {
    "id": "238",
    "iso2": "UY",
    "short_name": "Uruguay",
    "long_name": "Eastern Republic of Uruguay",
    "iso3": "URY",
    "numcode": "858",
    "un_member": "yes",
    "calling_code": "598",
    "cctld": ".uy",
    "spanish_name": "Uruguay"
  },
  {
    "id": "239",
    "iso2": "UZ",
    "short_name": "Uzbekistan",
    "long_name": "Republic of Uzbekistan",
    "iso3": "UZB",
    "numcode": "860",
    "un_member": "yes",
    "calling_code": "998",
    "cctld": ".uz",
    "spanish_name": "Uzbekist&aacute;n"
  },
  {
    "id": "240",
    "iso2": "VU",
    "short_name": "Vanuatu",
    "long_name": "Republic of Vanuatu",
    "iso3": "VUT",
    "numcode": "548",
    "un_member": "yes",
    "calling_code": "678",
    "cctld": ".vu",
    "spanish_name": "Vanuatu"
  },
  {
    "id": "241",
    "iso2": "VA",
    "short_name": "Vatican City",
    "long_name": "State of the Vatican City",
    "iso3": "VAT",
    "numcode": "336",
    "un_member": "no",
    "calling_code": "39",
    "cctld": ".va",
    "spanish_name": "Ciudad del Vaticano"
  },
  {
    "id": "242",
    "iso2": "VE",
    "short_name": "Venezuela",
    "long_name": "Bolivarian Republic of Venezuela",
    "iso3": "VEN",
    "numcode": "862",
    "un_member": "yes",
    "calling_code": "58",
    "cctld": ".ve",
    "spanish_name": "Venezuela"
  },
  {
    "id": "243",
    "iso2": "VN",
    "short_name": "Vietnam",
    "long_name": "Socialist Republic of Vietnam",
    "iso3": "VNM",
    "numcode": "704",
    "un_member": "yes",
    "calling_code": "84",
    "cctld": ".vn",
    "spanish_name": "Vietnam"
  },
  {
    "id": "244",
    "iso2": "VG",
    "short_name": "Virgin Islands, British",
    "long_name": "British Virgin Islands",
    "iso3": "VGB",
    "numcode": "092",
    "un_member": "no",
    "calling_code": "1+284",
    "cctld": ".vg",
    "spanish_name": "Islas Virgenes Brit&aacute;nicas"
  },
  {
    "id": "245",
    "iso2": "VI",
    "short_name": "Virgin Islands, US",
    "long_name": "Virgin Islands of the United States",
    "iso3": "VIR",
    "numcode": "850",
    "un_member": "no",
    "calling_code": "1+340",
    "cctld": ".vi",
    "spanish_name": "Islas Virgenes Americanas"
  },
  {
    "id": "246",
    "iso2": "WF",
    "short_name": "Wallis and Futuna",
    "long_name": "Wallis and Futuna",
    "iso3": "WLF",
    "numcode": "876",
    "un_member": "no",
    "calling_code": "681",
    "cctld": ".wf",
    "spanish_name": "Wallis y Futuna"
  },
  {
    "id": "247",
    "iso2": "EH",
    "short_name": "Western Sahara",
    "long_name": "Western Sahara",
    "iso3": "ESH",
    "numcode": "732",
    "un_member": "no",
    "calling_code": "212",
    "cctld": ".eh",
    "spanish_name": "S&aacute;hara Occidental"
  },
  {
    "id": "248",
    "iso2": "YE",
    "short_name": "Yemen",
    "long_name": "Republic of Yemen",
    "iso3": "YEM",
    "numcode": "887",
    "un_member": "yes",
    "calling_code": "967",
    "cctld": ".ye",
    "spanish_name": "Yemen"
  },
  {
    "id": "249",
    "iso2": "ZM",
    "short_name": "Zambia",
    "long_name": "Republic of Zambia",
    "iso3": "ZMB",
    "numcode": "894",
    "un_member": "yes",
    "calling_code": "260",
    "cctld": ".zm",
    "spanish_name": "Zambia"
  },
  {
    "id": "250",
    "iso2": "ZW",
    "short_name": "Zimbabwe",
    "long_name": "Republic of Zimbabwe",
    "iso3": "ZWE",
    "numcode": "716",
    "un_member": "yes",
    "calling_code": "263",
    "cctld": ".zw",
    "spanish_name": "Zimbabwe"
  }
]